{
  "type": "FeatureCollection",
  "features": [
    {
      "type": "Feature",
      "properties": {
        "norad_id": 25730,
        "name": "FENGYUN 1C",
        "group": "fengyun-1c-debris",
        "lat": 80.72956939496243,
        "lon": -46.01623813982078,
        "alt_km": 792.1333858761,
        "timestamp": "2025-12-20T11:30:28.648095+00:00",
        "meta_object_name": "FENGYUN 1C",
        "meta_object_id": "1999-025A",
        "meta_epoch": "2025-12-20T02:39:23.881248",
        "meta_mean_motion": 14.26086604,
        "meta_eccentricity": 0.0010404,
        "meta_inclination": 98.8832,
        "meta_ra_of_asc_node": 60.2443,
        "meta_arg_of_pericenter": 48.342,
        "meta_mean_anomaly": 311.8648,
        "meta_ephemeris_type": 0,
        "meta_classification_type": "U",
        "meta_norad_cat_id": 25730,
        "meta_element_set_no": 999,
        "meta_rev_at_epoch": 37242,
        "meta_bstar": 0.00078781,
        "meta_mean_motion_dot": 1.839e-05,
        "meta_mean_motion_ddot": 0,
        "tle_line1": "1 25730U 99025A   25354.11069307  .00001839  00000+0  78781-3 0  9992",
        "tle_line2": "2 25730  98.8832  60.2443 0010404  48.3420 311.8648 14.26086604372422"
      },
      "geometry": {
        "type": "Point",
        "coordinates": [
          -46.01623813982078,
          80.72956939496243
        ]
      }
    },
    {
      "type": "Feature",
      "properties": {
        "norad_id": 29733,
        "name": "FENGYUN 1C DEB",
        "group": "fengyun-1c-debris",
        "lat": 37.261130509580234,
        "lon": 42.267426221615686,
        "alt_km": 1627.8936099551383,
        "timestamp": "2025-12-20T11:30:28.648117+00:00",
        "meta_object_name": "FENGYUN 1C DEB",
        "meta_object_id": "1999-025X",
        "meta_epoch": "2025-12-20T02:12:18.520128",
        "meta_mean_motion": 12.96483633,
        "meta_eccentricity": 0.0569753,
        "meta_inclination": 99.2243,
        "meta_ra_of_asc_node": 49.0393,
        "meta_arg_of_pericenter": 185.1112,
        "meta_mean_anomaly": 208.3107,
        "meta_ephemeris_type": 0,
        "meta_classification_type": "U",
        "meta_norad_cat_id": 29733,
        "meta_element_set_no": 999,
        "meta_rev_at_epoch": 89215,
        "meta_bstar": 0.00145,
        "meta_mean_motion_dot": 8.42e-06,
        "meta_mean_motion_ddot": 0,
        "tle_line1": "1 29733U 99025X   25354.09188102  .00000842  00000+0  14500-2 0  9992",
        "tle_line2": "2 29733  99.2243  49.0393 0569753 185.1112 208.3107 12.96483633892158"
      },
      "geometry": {
        "type": "Point",
        "coordinates": [
          42.267426221615686,
          37.261130509580234
        ]
      }
    },
    {
      "type": "Feature",
      "properties": {
        "norad_id": 29734,
        "name": "FENGYUN 1C DEB",
        "group": "fengyun-1c-debris",
        "lat": 79.78390545104709,
        "lon": -140.55506266696202,
        "alt_km": 1270.3964428611034,
        "timestamp": "2025-12-20T11:30:28.648131+00:00",
        "meta_object_name": "FENGYUN 1C DEB",
        "meta_object_id": "1999-025Y",
        "meta_epoch": "2025-12-19T18:29:51.680256",
        "meta_mean_motion": 12.9134365,
        "meta_eccentricity": 0.06156554,
        "meta_inclination": 99.1704,
        "meta_ra_of_asc_node": 282.5253,
        "meta_arg_of_pericenter": 355.8185,
        "meta_mean_anomaly": 29.3297,
        "meta_ephemeris_type": 0,
        "meta_classification_type": "U",
        "meta_norad_cat_id": 29734,
        "meta_element_set_no": 999,
        "meta_rev_at_epoch": 88639,
        "meta_bstar": 0.0025782675,
        "meta_mean_motion_dot": 1.573e-05,
        "meta_mean_motion_ddot": 0,
        "tle_line1": "1 29734U 99025Y   25353.77073704  .00001573  00000+0  25783-2 0  9995",
        "tle_line2": "2 29734  99.1704 282.5253 0615655 355.8185  29.3297 12.91343650886397"
      },
      "geometry": {
        "type": "Point",
        "coordinates": [
          -140.55506266696202,
          79.78390545104709
        ]
      }
    },
    {
      "type": "Feature",
      "properties": {
        "norad_id": 29735,
        "name": "FENGYUN 1C DEB",
        "group": "fengyun-1c-debris",
        "lat": -80.58109822134253,
        "lon": -5.830239658071893,
        "alt_km": 1543.308042923155,
        "timestamp": "2025-12-20T11:30:28.648143+00:00",
        "meta_object_name": "FENGYUN 1C DEB",
        "meta_object_id": "1999-025Z",
        "meta_epoch": "2025-12-20T00:43:55.243200",
        "meta_mean_motion": 12.75059109,
        "meta_eccentricity": 0.0697486,
        "meta_inclination": 99.3915,
        "meta_ra_of_asc_node": 267.7714,
        "meta_arg_of_pericenter": 159.0359,
        "meta_mean_anomaly": 204.0895,
        "meta_ephemeris_type": 0,
        "meta_classification_type": "U",
        "meta_norad_cat_id": 29735,
        "meta_element_set_no": 999,
        "meta_rev_at_epoch": 87508,
        "meta_bstar": 0.0014187,
        "meta_mean_motion_dot": 7.96e-06,
        "meta_mean_motion_ddot": 0,
        "tle_line1": "1 29735U 99025Z   25354.03050050  .00000796  00000+0  14187-2 0  9997",
        "tle_line2": "2 29735  99.3915 267.7714 0697486 159.0359 204.0895 12.75059109875085"
      },
      "geometry": {
        "type": "Point",
        "coordinates": [
          -5.830239658071893,
          -80.58109822134253
        ]
      }
    },
    {
      "type": "Feature",
      "properties": {
        "norad_id": 29736,
        "name": "FENGYUN 1C DEB",
        "group": "fengyun-1c-debris",
        "lat": -80.58445864275184,
        "lon": -99.89439000886108,
        "alt_km": 1382.6939452861134,
        "timestamp": "2025-12-20T11:30:28.648154+00:00",
        "meta_object_name": "FENGYUN 1C DEB",
        "meta_object_id": "1999-025AA",
        "meta_epoch": "2025-12-19T23:22:44.870016",
        "meta_mean_motion": 12.57503149,
        "meta_eccentricity": 0.0724856,
        "meta_inclination": 99.4031,
        "meta_ra_of_asc_node": 171.9873,
        "meta_arg_of_pericenter": 183.1755,
        "meta_mean_anomaly": 312.1954,
        "meta_ephemeris_type": 0,
        "meta_classification_type": "U",
        "meta_norad_cat_id": 29736,
        "meta_element_set_no": 999,
        "meta_rev_at_epoch": 86635,
        "meta_bstar": 0.0014432,
        "meta_mean_motion_dot": 6.26e-06,
        "meta_mean_motion_ddot": 0,
        "tle_line1": "1 29736U 99025AA  25353.97413044  .00000626  00000+0  14432-2 0  9991",
        "tle_line2": "2 29736  99.4031 171.9873 0724856 183.1755 312.1954 12.57503149866353"
      },
      "geometry": {
        "type": "Point",
        "coordinates": [
          -99.89439000886108,
          -80.58445864275184
        ]
      }
    },
    {
      "type": "Feature",
      "properties": {
        "norad_id": 29737,
        "name": "FENGYUN 1C DEB",
        "group": "fengyun-1c-debris",
        "lat": -49.958563499835165,
        "lon": 116.67531986216814,
        "alt_km": 1549.7961240920868,
        "timestamp": "2025-12-20T11:30:28.648171+00:00",
        "meta_object_name": "FENGYUN 1C DEB",
        "meta_object_id": "1999-025AB",
        "meta_epoch": "2025-12-20T03:07:33.083328",
        "meta_mean_motion": 12.65671771,
        "meta_eccentricity": 0.0695379,
        "meta_inclination": 99.5803,
        "meta_ra_of_asc_node": 307.977,
        "meta_arg_of_pericenter": 122.4318,
        "meta_mean_anomaly": 310.1837,
        "meta_ephemeris_type": 0,
        "meta_classification_type": "U",
        "meta_norad_cat_id": 29737,
        "meta_element_set_no": 999,
        "meta_rev_at_epoch": 86962,
        "meta_bstar": 0.0027831,
        "meta_mean_motion_dot": 1.325e-05,
        "meta_mean_motion_ddot": 0,
        "tle_line1": "1 29737U 99025AB  25354.13024402  .00001325  00000+0  27831-2 0  9991",
        "tle_line2": "2 29737  99.5803 307.9770 0695379 122.4318 310.1837 12.65671771869624"
      },
      "geometry": {
        "type": "Point",
        "coordinates": [
          116.67531986216814,
          -49.958563499835165
        ]
      }
    },
    {
      "type": "Feature",
      "properties": {
        "norad_id": 29738,
        "name": "FENGYUN 1C DEB",
        "group": "fengyun-1c-debris",
        "lat": 60.18832871905722,
        "lon": -3.1793989047443985,
        "alt_km": 2035.8352049066134,
        "timestamp": "2025-12-20T11:30:28.648195+00:00",
        "meta_object_name": "FENGYUN 1C DEB",
        "meta_object_id": "1999-025AC",
        "meta_epoch": "2025-12-19T10:03:32.251392",
        "meta_mean_motion": 12.61062397,
        "meta_eccentricity": 0.0864961,
        "meta_inclination": 99.4087,
        "meta_ra_of_asc_node": 159.1339,
        "meta_arg_of_pericenter": 280.0234,
        "meta_mean_anomaly": 70.4435,
        "meta_ephemeris_type": 0,
        "meta_classification_type": "U",
        "meta_norad_cat_id": 29738,
        "meta_element_set_no": 999,
        "meta_rev_at_epoch": 86301,
        "meta_bstar": 0.0022174,
        "meta_mean_motion_dot": 1.655e-05,
        "meta_mean_motion_ddot": 0,
        "tle_line1": "1 29738U 99025AC  25353.41912328  .00001655  00000+0  22174-2 0  9996",
        "tle_line2": "2 29738  99.4087 159.1339 0864961 280.0234  70.4435 12.61062397863010"
      },
      "geometry": {
        "type": "Point",
        "coordinates": [
          -3.1793989047443985,
          60.18832871905722
        ]
      }
    }
  ]
}